XRISM                   
1 57800U 23137A   24295.20890448  .00009436  00000+0  66601-3 0  9996
2 57800  31.0035 289.1437 0008360  16.0716 344.0185 15.03669479 61659
